{"fetched_at":"2026-07-22T07:09:27.047Z","source":"https://celestrak.org/NORAD/elements/gp.php?GROUP=spire&FORMAT=JSON","constellation":"spire","records":[{"OBJECT_NAME":"LEMUR-2-HUBBLE-4","OBJECT_ID":"2025-135AP","EPOCH":"2026-07-21T13:43:57.714528","CLASSIFICATION_TYPE":"U","MEAN_MOTION":14.93696631,"ECCENTRICITY":0.00031402,"INCLINATION":97.7722,"RA_OF_ASC_NODE":316.0824,"ARG_OF_PERICENTER":147.4376,"MEAN_ANOMALY":212.7038,"EPHEMERIS_TYPE":0,"NORAD_CAT_ID":64565,"ELEMENT_SET_NO":999,"REV_AT_EPOCH":5900,"BSTAR":0.000084281726,"MEAN_MOTION_DOT":0.00000835,"MEAN_MOTION_DDOT":0},{"OBJECT_NAME":"LEMUR-2-SEJONG-2","OBJECT_ID":"2025-135BL","EPOCH":"2026-07-21T14:21:55.280736","CLASSIFICATION_TYPE":"U","MEAN_MOTION":14.96948506,"ECCENTRICITY":0.00043476,"INCLINATION":97.771,"RA_OF_ASC_NODE":317.3937,"ARG_OF_PERICENTER":189.1582,"MEAN_ANOMALY":170.9561,"EPHEMERIS_TYPE":0,"NORAD_CAT_ID":64586,"ELEMENT_SET_NO":999,"REV_AT_EPOCH":5909,"BSTAR":0.00037174995,"MEAN_MOTION_DOT":0.00004215,"MEAN_MOTION_DDOT":0},{"OBJECT_NAME":"LEMUR-2-HUBBLE-5","OBJECT_ID":"2025-135BT","EPOCH":"2026-07-21T15:29:52.878624","CLASSIFICATION_TYPE":"U","MEAN_MOTION":14.94223746,"ECCENTRICITY":0.00048403,"INCLINATION":97.7742,"RA_OF_ASC_NODE":316.831,"ARG_OF_PERICENTER":209.7258,"MEAN_ANOMALY":150.3688,"EPHEMERIS_TYPE":0,"NORAD_CAT_ID":64840,"ELEMENT_SET_NO":999,"REV_AT_EPOCH":5905,"BSTAR":0.000095389866,"MEAN_MOTION_DOT":0.00000965,"MEAN_MOTION_DDOT":0},{"OBJECT_NAME":"LEMUR-2-KARENDARRELL","OBJECT_ID":"2025-135BU","EPOCH":"2026-07-21T06:21:17.277984","CLASSIFICATION_TYPE":"U","MEAN_MOTION":15.00552546,"ECCENTRICITY":0.00129153,"INCLINATION":97.772,"RA_OF_ASC_NODE":318.4328,"ARG_OF_PERICENTER":86.4408,"MEAN_ANOMALY":273.8293,"EPHEMERIS_TYPE":0,"NORAD_CAT_ID":64841,"ELEMENT_SET_NO":999,"REV_AT_EPOCH":5912,"BSTAR":0.00044835704,"MEAN_MOTION_DOT":0.00005607,"MEAN_MOTION_DDOT":0},{"OBJECT_NAME":"LEMUR-2-LUCILLE-ROSE","OBJECT_ID":"2025-135BV","EPOCH":"2026-07-21T13:43:17.080608","CLASSIFICATION_TYPE":"U","MEAN_MOTION":15.00541066,"ECCENTRICITY":0.00155128,"INCLINATION":97.7692,"RA_OF_ASC_NODE":318.7733,"ARG_OF_PERICENTER":170.0627,"MEAN_ANOMALY":190.0907,"EPHEMERIS_TYPE":0,"NORAD_CAT_ID":65403,"ELEMENT_SET_NO":999,"REV_AT_EPOCH":5379,"BSTAR":0.00051710027,"MEAN_MOTION_DOT":0.00006479,"MEAN_MOTION_DDOT":0},{"OBJECT_NAME":"LEMUR-2-AFFIE-WAUWIE","OBJECT_ID":"2025-248C","EPOCH":"2026-07-21T12:19:26.290272","CLASSIFICATION_TYPE":"U","MEAN_MOTION":15.28432836,"ECCENTRICITY":0.00093418,"INCLINATION":45.3908,"RA_OF_ASC_NODE":288.8238,"ARG_OF_PERICENTER":284.4468,"MEAN_ANOMALY":75.5385,"EPHEMERIS_TYPE":0,"NORAD_CAT_ID":66295,"ELEMENT_SET_NO":999,"REV_AT_EPOCH":3984,"BSTAR":0.00072788188,"MEAN_MOTION_DOT":0.00020299,"MEAN_MOTION_DDOT":0},{"OBJECT_NAME":"OTTER SDM","OBJECT_ID":"2025-276N","EPOCH":"2026-07-21T03:41:06.173952","CLASSIFICATION_TYPE":"U","MEAN_MOTION":15.20098954,"ECCENTRICITY":0.00047016,"INCLINATION":97.4195,"RA_OF_ASC_NODE":275.0715,"ARG_OF_PERICENTER":227.0821,"MEAN_ANOMALY":133.0021,"EPHEMERIS_TYPE":0,"NORAD_CAT_ID":66678,"ELEMENT_SET_NO":999,"REV_AT_EPOCH":3557,"BSTAR":0.00020749186,"MEAN_MOTION_DOT":0.00004414,"MEAN_MOTION_DDOT":0},{"OBJECT_NAME":"LEMUR-2-STAS-GORBUK","OBJECT_ID":"2025-276W","EPOCH":"2026-07-21T04:14:13.462944","CLASSIFICATION_TYPE":"U","MEAN_MOTION":15.19695406,"ECCENTRICITY":0.00040432,"INCLINATION":97.4229,"RA_OF_ASC_NODE":275.145,"ARG_OF_PERICENTER":220.968,"MEAN_ANOMALY":139.1252,"EPHEMERIS_TYPE":0,"NORAD_CAT_ID":66686,"ELEMENT_SET_NO":999,"REV_AT_EPOCH":3557,"BSTAR":0.00017789899,"MEAN_MOTION_DOT":0.0000373,"MEAN_MOTION_DDOT":0},{"OBJECT_NAME":"LEMUR-2-TEODOR","OBJECT_ID":"2025-276DG","EPOCH":"2026-07-21T10:50:36.370176","CLASSIFICATION_TYPE":"U","MEAN_MOTION":15.21379403,"ECCENTRICITY":0.00020894,"INCLINATION":97.4133,"RA_OF_ASC_NODE":275.6955,"ARG_OF_PERICENTER":83.1111,"MEAN_ANOMALY":277.0362,"EPHEMERIS_TYPE":0,"NORAD_CAT_ID":66768,"ELEMENT_SET_NO":999,"REV_AT_EPOCH":3565,"BSTAR":0.00019414168,"MEAN_MOTION_DOT":0.00004284,"MEAN_MOTION_DDOT":0},{"OBJECT_NAME":"LEMUR-2-LAILA","OBJECT_ID":"2025-276DQ","EPOCH":"2026-07-21T11:40:28.698528","CLASSIFICATION_TYPE":"U","MEAN_MOTION":15.21607659,"ECCENTRICITY":0.0002822,"INCLINATION":97.4156,"RA_OF_ASC_NODE":275.8722,"ARG_OF_PERICENTER":85.1668,"MEAN_ANOMALY":274.989,"EPHEMERIS_TYPE":0,"NORAD_CAT_ID":66776,"ELEMENT_SET_NO":999,"REV_AT_EPOCH":3566,"BSTAR":0.00021282148,"MEAN_MOTION_DOT":0.00004735,"MEAN_MOTION_DDOT":0},{"OBJECT_NAME":"LEMUR-2-CELIJO-SB-PK","OBJECT_ID":"2025-276DW","EPOCH":"2026-07-21T04:29:53.581344","CLASSIFICATION_TYPE":"U","MEAN_MOTION":15.00325146,"ECCENTRICITY":0.00066514,"INCLINATION":97.5181,"RA_OF_ASC_NODE":271.8419,"ARG_OF_PERICENTER":49.7685,"MEAN_ANOMALY":310.412,"EPHEMERIS_TYPE":0,"NORAD_CAT_ID":66781,"ELEMENT_SET_NO":999,"REV_AT_EPOCH":2772,"BSTAR":0.00034976661,"MEAN_MOTION_DOT":0.00004331,"MEAN_MOTION_DDOT":0},{"OBJECT_NAME":"LEMUR-2-FINNIAN","OBJECT_ID":"2025-276DX","EPOCH":"2026-07-21T03:45:09.751104","CLASSIFICATION_TYPE":"U","MEAN_MOTION":15.00658169,"ECCENTRICITY":0.00067888,"INCLINATION":97.534,"RA_OF_ASC_NODE":272.0921,"ARG_OF_PERICENTER":337.16,"MEAN_ANOMALY":22.9321,"EPHEMERIS_TYPE":0,"NORAD_CAT_ID":66782,"ELEMENT_SET_NO":999,"REV_AT_EPOCH":2509,"BSTAR":0.00014778487,"MEAN_MOTION_DOT":0.00001812,"MEAN_MOTION_DDOT":0},{"OBJECT_NAME":"LEMUR-2-STARLIGHT","OBJECT_ID":"2025-276DY","EPOCH":"2026-07-21T03:24:26.468064","CLASSIFICATION_TYPE":"U","MEAN_MOTION":14.99404237,"ECCENTRICITY":0.00145694,"INCLINATION":97.5237,"RA_OF_ASC_NODE":271.6217,"ARG_OF_PERICENTER":29.2659,"MEAN_ANOMALY":330.9377,"EPHEMERIS_TYPE":0,"NORAD_CAT_ID":66783,"ELEMENT_SET_NO":999,"REV_AT_EPOCH":3528,"BSTAR":0.00042784416,"MEAN_MOTION_DOT":0.00005194,"MEAN_MOTION_DDOT":0},{"OBJECT_NAME":"LEMUR-2-TARTIFLETTE","OBJECT_ID":"2025-276DZ","EPOCH":"2026-07-21T03:22:14.263104","CLASSIFICATION_TYPE":"U","MEAN_MOTION":14.99385365,"ECCENTRICITY":0.00138286,"INCLINATION":97.5234,"RA_OF_ASC_NODE":271.628,"ARG_OF_PERICENTER":38.007,"MEAN_ANOMALY":322.2126,"EPHEMERIS_TYPE":0,"NORAD_CAT_ID":66784,"ELEMENT_SET_NO":999,"REV_AT_EPOCH":3528,"BSTAR":0.00040272241,"MEAN_MOTION_DOT":0.00004882,"MEAN_MOTION_DDOT":0},{"OBJECT_NAME":"LEMUR-2-VUKASIN","OBJECT_ID":"2025-276EA","EPOCH":"2026-07-21T04:08:44.219328","CLASSIFICATION_TYPE":"U","MEAN_MOTION":15.00579723,"ECCENTRICITY":0.00021227,"INCLINATION":97.52,"RA_OF_ASC_NODE":272.0268,"ARG_OF_PERICENTER":33.378,"MEAN_ANOMALY":326.7577,"EPHEMERIS_TYPE":0,"NORAD_CAT_ID":66785,"ELEMENT_SET_NO":999,"REV_AT_EPOCH":3524,"BSTAR":0.00030092036,"MEAN_MOTION_DOT":0.00003742,"MEAN_MOTION_DDOT":0},{"OBJECT_NAME":"LEMUR-2-HOTSPUR-TOM","OBJECT_ID":"2025-276EB","EPOCH":"2026-07-21T11:15:17.107200","CLASSIFICATION_TYPE":"U","MEAN_MOTION":14.99283924,"ECCENTRICITY":0.00135371,"INCLINATION":97.5214,"RA_OF_ASC_NODE":271.917,"ARG_OF_PERICENTER":28.9034,"MEAN_ANOMALY":331.2937,"EPHEMERIS_TYPE":0,"NORAD_CAT_ID":66786,"ELEMENT_SET_NO":999,"REV_AT_EPOCH":3526,"BSTAR":0.00037962554,"MEAN_MOTION_DOT":0.00004586,"MEAN_MOTION_DDOT":0}]}
