{"epoch":1784710044,"count":18256,"objects":[{"id":"64565","name":"LEMUR 2 HUBBLE-4","type":"PAYLOAD","l1":"1 64565U 25135AP  26202.57219577  .00000835  00000-0  84282-4 0  9991","l2":"2 64565  97.7722 316.0824 0003140 147.4376 212.7038 14.93696631 59001"},{"id":"64586","name":"LEMUR 2 SEJONG-2","type":"PAYLOAD","l1":"1 64586U 25135BL  26202.59855649  .00004215  00000-0  37175-3 0  9996","l2":"2 64586  97.7710 317.3937 0004348 189.1582 170.9561 14.96948506 59092"},{"id":"64840","name":"LEMUR 2 HUBBLE-5","type":"PAYLOAD","l1":"1 64840U 25135BT  26202.64575091  .00000965  00000-0  95390-4 0  9997","l2":"2 64840  97.7742 316.8310 0004840 209.7258 150.3688 14.94223746 59053"},{"id":"64841","name":"LEMUR 2 KARENDARRELL","type":"PAYLOAD","l1":"1 64841U 25135BU  26202.26478331  .00005607  00000-0  44836-3 0  9991","l2":"2 64841  97.7720 318.4328 0012915  86.4408 273.8293 15.00552546 59128"},{"id":"65403","name":"LEMUR-2-LUCILLE-ROSE","type":"PAYLOAD","l1":"1 65403U 25135BV  26202.57172547  .00006479  00000-0  51710-3 0  9997","l2":"2 65403  97.7692 318.7733 0015513 170.0627 190.0907 15.00541066 53798"},{"id":"66295","name":"LEMUR 2 AFFIE-WAUWIE","type":"PAYLOAD","l1":"1 66295U 25248C   26202.51349873  .00020299  00000-0  72788-3 0  9998","l2":"2 66295  45.3908 288.8238 0009342 284.4468  75.5385 15.28432836 39841"},{"id":"66678","name":"OTTER SDM","type":"PAYLOAD","l1":"1 66678U 25276N   26202.15354368  .00004414  00000-0  20749-3 0  9990","l2":"2 66678  97.4195 275.0715 0004702 227.0821 133.0021 15.20098954 35575"},{"id":"66686","name":"LEMUR-2-STAS-GORBUK","type":"PAYLOAD","l1":"1 66686U 25276W   26202.17654471  .00003730  00000-0  17790-3 0  9991","l2":"2 66686  97.4229 275.1450 0004043 220.9680 139.1252 15.19695406 35578"},{"id":"66768","name":"LEMUR-2-TEODOR","type":"PAYLOAD","l1":"1 66768U 25276DG  26202.45180984  .00004284  00000-0  19414-3 0  9996","l2":"2 66768  97.4133 275.6955 0002089  83.1111 277.0362 15.21379403 35656"},{"id":"66776","name":"LEMUR-2-LAILA","type":"PAYLOAD","l1":"1 66776U 25276DQ  26202.48644327  .00004735  00000-0  21282-3 0  9991","l2":"2 66776  97.4156 275.8722 0002822  85.1668 274.9890 15.21607659 35668"},{"id":"66781","name":"LEMUR-2-CELIJO-SB-PK","type":"PAYLOAD","l1":"1 66781U 25276DW  26202.18742571  .00004331  00000-0  34977-3 0  9991","l2":"2 66781  97.5181 271.8419 0006651  49.7685 310.4120 15.00325146 27726"},{"id":"66782","name":"LEMUR-2-FINNIAN","type":"PAYLOAD","l1":"1 66782U 25276DX  26202.15636286  .00001812  00000-0  14778-3 0  9992","l2":"2 66782  97.5340 272.0921 0006789 337.1600  22.9321 15.00658169 25098"},{"id":"66783","name":"LEMUR-2-STARLIGHT","type":"PAYLOAD","l1":"1 66783U 25276DY  26202.14197301  .00005194  00000-0  42784-3 0  9997","l2":"2 66783  97.5237 271.6217 0014569  29.2659 330.9377 14.99404237 35282"},{"id":"66784","name":"LEMUR-2-TARTIFLETTE","type":"PAYLOAD","l1":"1 66784U 25276DZ  26202.14044286  .00004882  00000-0  40272-3 0  9994","l2":"2 66784  97.5234 271.6280 0013829  38.0070 322.2126 14.99385365 35289"},{"id":"66785","name":"LEMUR-2-VUKASIN","type":"PAYLOAD","l1":"1 66785U 25276EA  26202.17273402  .00003742  00000-0  30092-3 0  9995","l2":"2 66785  97.5200 272.0268 0002123  33.3780 326.7577 15.00579723 35246"},{"id":"66786","name":"LEMUR-2-HOTSPUR-TOM","type":"PAYLOAD","l1":"1 66786U 25276EB  26202.46894800  .00004586  00000-0  37963-3 0  9990","l2":"2 66786  97.5214 271.9170 0013537  28.9034 331.2937 14.99283924 35260"}]}